STARLINK-34219          
1 64270U 25120Q   26068.43808738  .00025212  00000+0  86011-3 0  9992
2 64270  53.1584 118.1393 0000936  64.6104 295.4994 15.30213417 43873
2025-313BE              
1 67482U 25313BE  26068.69721505  .00077178  00000+0  26504-2 0  9996
2 67482  97.3989 145.3568 0007208 335.3714  24.7181 15.29801687  7972
